{
    "links": {
        "self": "http://www.neowsapp.com/rest/v1/neo/3374670?api_key=iIulBulltgU6a56xZRHN4H3l9WmuAYTsLGpBGhQ2"
    },
    "id": "3374670",
    "neo_reference_id": "3374670",
    "name": "(2007 HF15)",
    "designation": "2007 HF15",
    "nasa_jpl_url": "http://ssd.jpl.nasa.gov/sbdb.cgi?sstr=3374670",
    "absolute_magnitude_h": 20.8,
    "estimated_diameter": {
        "kilometers": {
            "estimated_diameter_min": 0.1838886721,
            "estimated_diameter_max": 0.411187571
        },
        "meters": {
            "estimated_diameter_min": 183.8886720703,
            "estimated_diameter_max": 411.1875710413
        },
        "miles": {
            "estimated_diameter_min": 0.1142630881,
            "estimated_diameter_max": 0.2555000322
        },
        "feet": {
            "estimated_diameter_min": 603.309310875,
            "estimated_diameter_max": 1349.040630575
        }
    },
    "is_potentially_hazardous_asteroid": false,
    "close_approach_data": [
        {
            "close_approach_date": "2007-04-03",
            "close_approach_date_full": "2007-Apr-03 19:30",
            "epoch_date_close_approach": 1175628600000,
            "relative_velocity": {
                "kilometers_per_second": "4.2423311108",
                "kilometers_per_hour": "15272.3919987828",
                "miles_per_hour": "9489.6704616881"
            },
            "miss_distance": {
                "astronomical": "0.3217460726",
                "lunar": "125.1592222414",
                "kilometers": "48132527.141825362",
                "miles": "29908165.5058675156"
            },
            "orbiting_body": "Earth"
        },
        {
            "close_approach_date": "2163-04-07",
            "close_approach_date_full": "2163-Apr-07 19:14",
            "epoch_date_close_approach": 6098872440000,
            "relative_velocity": {
                "kilometers_per_second": "6.3551544586",
                "kilometers_per_hour": "22878.5560510556",
                "miles_per_hour": "14215.8450085018"
            },
            "miss_distance": {
                "astronomical": "0.2470420679",
                "lunar": "96.0993644131",
                "kilometers": "36956967.158235373",
                "miles": "22963994.5375512274"
            },
            "orbiting_body": "Earth"
        },
        {
            "close_approach_date": "2165-02-04",
            "close_approach_date_full": "2165-Feb-04 00:02",
            "epoch_date_close_approach": 6156604920000,
            "relative_velocity": {
                "kilometers_per_second": "7.0205128251",
                "kilometers_per_hour": "25273.8461702236",
                "miles_per_hour": "15704.1851383815"
            },
            "miss_distance": {
                "astronomical": "1.275942662",
                "lunar": "496.341695518",
                "kilometers": "190878304.47732994",
                "miles": "118606278.555995572"
            },
            "orbiting_body": "Juptr"
        },
        {
            "close_approach_date": "2188-11-30",
            "close_approach_date_full": "2188-Nov-30 20:11",
            "epoch_date_close_approach": 6908357460000,
            "relative_velocity": {
                "kilometers_per_second": "9.3838879098",
                "kilometers_per_hour": "33781.9964751299",
                "miles_per_hour": "20990.8188653384"
            },
            "miss_distance": {
                "astronomical": "1.8985973124",
                "lunar": "738.5543545236",
                "kilometers": "284026113.922764588",
                "miles": "176485643.4435757944"
            },
            "orbiting_body": "Juptr"
        }
    ],
    "orbital_data": {
        "orbit_id": "11",
        "orbit_determination_date": "2017-04-06 09:06:30",
        "first_observation_date": "2007-04-23",
        "last_observation_date": "2007-05-24",
        "data_arc_in_days": 31,
        "observations_used": 26,
        "orbit_uncertainty": "7",
        "minimum_orbit_intersection": ".30198",
        "jupiter_tisserand_invariant": "3.041",
        "epoch_osculation": "2459000.5",
        "eccentricity": ".5543899090890932",
        "semi_major_axis": "2.858868633267678",
        "inclination": "8.287295032743691",
        "ascending_node_longitude": "56.5957809746424",
        "orbital_period": "1765.589455497819",
        "perihelion_distance": "1.273940711572749",
        "perihelion_argument": "126.661738081667",
        "aphelion_distance": "4.443796554962606",
        "perihelion_time": "2459478.368654022041",
        "mean_anomaly": "262.5635801617148",
        "mean_motion": ".2038979100600121",
        "equinox": "J2000",
        "orbit_class": {
            "orbit_class_type": "AMO",
            "orbit_class_description": "Near-Earth asteroid orbits similar to that of 1221 Amor",
            "orbit_class_range": "1.017 AU < q (perihelion) < 1.3 AU"
        }
    },
    "is_sentry_object": false
}